STARLINK-35906          
1 67112U 25299L   25364.25002315 -.01990659  00000+0 -23750-1 0  9990
2 67112  42.9992 209.6838 0001348 268.0892 245.6257 15.63528541  3511
STARLINK-35789          
1 67113U 25299M   25364.25002315 -.01988886  00000+0 -23716-1 0  9992
2 67113  42.9991 209.6790 0001392 268.2186 247.2808 15.63539351  3516
STARLINK-36180          
1 67114U 25299N   25364.25002315 -.01991323  00000+0 -23744-1 0  9994
2 67114  42.9994 209.6745 0001400 267.5638 249.8159 15.63544278  3627
STARLINK-35892          
1 67115U 25299P   25364.25002315 -.01990013  00000+0 -23716-1 0  9999
2 67115  42.9990 209.6691 0001387 266.1193 253.0528 15.63555142  3516
STARLINK-35738          
1 67116U 25299Q   25364.25002315 -.01990690  00000+0 -23722-1 0  9998
2 67116  42.9992 209.6648 0001415 267.2812 253.7900 15.63557931  3512
STARLINK-35674          
1 67117U 25299R   25364.25002315 -.01990774  00000+0 -23719-1 0  9998
2 67117  42.9993 209.6609 0001411 268.2237 254.6866 15.63562848  3412
STARLINK-35701          
1 67118U 25299S   25364.25002315 -.01986973  00000+0 -23663-1 0  9993
2 67118  42.9991 209.6557 0001374 267.4581 257.3004 15.63568295  3577
STARLINK-36179          
1 67119U 25299T   25364.25002315 -.01989285  00000+0 -23658-1 0  9997
2 67119  42.9993 209.6466 0001424 265.8121 262.3806 15.63606047  3627
STARLINK-36217          
1 67120U 25299U   25364.25002315 -.01984248  00000+0 -23613-1 0  9994
2 67120  42.9993 209.6519 0001399 266.4884 260.0244 15.63581180  3623
STARLINK-36124          
1 67121U 25299V   25364.25002315 -.01992002  00000+0 -23683-1 0  9999
2 67121  42.9993 209.6377 0001342 266.3710 265.5169 15.63619345  3622
STARLINK-36188          
1 67122U 25299W   25364.25002315 -.01988486  00000+0 -23623-1 0  9995
2 67122  42.9992 209.6340 0001380 264.0400 269.6017 15.63632345  3627
STARLINK-36151          
1 67123U 25299X   25364.25002315 -.01991129  00000+0 -23676-1 0  9992
2 67123  42.9992 209.6430 0001385 265.3351 264.6935 15.63614062  3622
